EUTELSAT 21B            
1 38992U 12062B   25263.11989043  .00000114  00000+0  00000+0 0  9999
2 38992   0.0745  17.1848 0002815 163.6038 243.2546  1.00270185 47114
EUTELSAT 70B            
1 39020U 12069A   25263.09470188 -.00000060  00000+0  00000+0 0  9992
2 39020   0.0651 353.6340 0004004 188.1907 282.0151  1.00271127 46802
EUTELSAT 117 WEST A     
1 39122U 13012A   25263.05760837  .00000000  00000+0  00000+0 0  9996
2 39122   0.0150 177.1978 0002881  10.2498  75.6854  1.00269383 45723
EUTELSAT 7B             
1 39163U 13022A   25263.08213515  .00000032  00000+0  00000+0 0  9996
2 39163   0.0694   1.1071 0000773 352.9680  41.7108  1.00273127 45242
EXPRESS-AT1             
1 39612U 14010A   25263.23794782  .00000062  00000+0  00000+0 0  9993
2 39612   0.0217 207.5987 0000332 251.3465  42.0931  1.00272730 42114
EXPRESS-AT2             
1 39613U 14010B   25263.25122259 -.00000297  00000+0  00000+0 0  9991
2 39613   0.0275 255.4892 0000285 231.9088 102.2786  1.00273579 41790
EUTELSAT 3B             
1 39773U 14030A   25263.10878037  .00000003  00000+0  00000+0 0  9990
2 39773   0.0640 353.2548 0004313 186.8569 221.4028  1.00270617 41351
EUTELSAT 115 WEST B     
1 40425U 15010B   25262.91824535 -.00000042  00000+0  00000+0 0  9991
2 40425   0.0383  20.5508 0000048 140.3236  53.8598  1.00271424 38686
